NORAD_CAT_ID,OBJECT_NAME,OBJECT_TYPE,EPOCH,MEAN_MOTION,ECCENTRICITY,INCLINATION,RA_OF_ASC_NODE,ARG_OF_PERICENTER,MEAN_ANOMALY,BSTAR,MEAN_MOTION_DOT,MEAN_MOTION_DDOT,TLE_LINE0,TLE_LINE1,TLE_LINE2,SEMIMAJOR_AXIS,PERIOD,APOGEE,PERIGEE,DECAYED
49757.0,STARLINK-3197,PAYLOAD,2023-06-04 21:51:18,15.08842546,0.0001015,53.2173,347.7177,98.709,261.4017,0.00010121,1.323e-05,0.0,0 STARLINK-3197,1 49757U 21115AK  23155.91063464  .00001323  00000-0  10121-3 0  9998,2 49757  53.2173 347.7177 0001015  98.7090 261.4017 15.08842546 83387,6917.873,95.437,540.44,539.035,0.0
49757.0,STARLINK-3197,PAYLOAD,2023-06-05 12:09:47,15.08839843,0.0001053,53.2171,345.0412,92.9153,267.196,8.7593e-05,1.107e-05,0.0,0 STARLINK-3197,1 49757U 21115AK  23156.50679752  .00001107  00000-0  87593-4 0  9995,2 49757  53.2171 345.0412 0001053  92.9153 267.1960 15.08839843 83472,6917.881,95.438,540.474,539.017,0.0
49757.0,STARLINK-3197,PAYLOAD,2023-06-05 16:55:56,15.08828154,9.2e-05,53.2173,344.1494,95.144,264.9657,0.00032034,4.812e-05,0.0,0 STARLINK-3197,1 49757U 21115AK  23156.70552033  .00004812  00000-0  32034-3 0  9994,2 49757  53.2173 344.1494 0000920  95.1440 264.9657 15.08828154 84618,6917.917,95.438,540.418,539.145,0.0
49757.0,STARLINK-3197,PAYLOAD,2023-06-05 20:06:42,15.08847734,0.0001008,53.2172,343.5546,95.6525,264.4582,0.00010338,1.358e-05,0.0,0 STARLINK-3197,1 49757U 21115AK  23156.83799185  .00001358  00000-0  10338-3 0  9994,2 49757  53.2172 343.5546 0001008  95.6525 264.4582 15.08847734 83521,6917.857,95.437,540.419,539.024,0.0
49757.0,STARLINK-3197,PAYLOAD,2023-06-06 07:14:24,15.0884267,0.0001007,53.2172,341.4729,91.5243,268.5864,6.3191e-05,7.18e-06,0.0,0 STARLINK-3197,1 49757U 21115AK  23157.30167529  .00000718  00000-0  63191-4 0  9993,2 49757  53.2172 341.4729 0001007  91.5243 268.5864 15.08842670 84705,6917.872,95.437,540.434,539.041,0.0
49757.0,STARLINK-3197,PAYLOAD,2023-06-06 18:22:06,15.08841433,9.52e-05,53.2172,339.3916,95.7784,264.3317,7.7996e-05,9.54e-06,0.0,0 STARLINK-3197,1 49757U 21115AK  23157.76535552  .00000954  00000-0  77996-4 0  9998,2 49757  53.2172 339.3916 0000952  95.7784 264.3317 15.08841433 83660,6917.876,95.437,540.4,539.082,0.0
49757.0,STARLINK-3197,PAYLOAD,2023-06-07 13:26:44,15.08837581,9.71e-05,53.2172,335.8234,89.1804,270.9299,7.227e-06,-1.73e-06,0.0,0 STARLINK-3197,1 49757U 21115AK  23158.56023970 -.00000173  00000-0  72270-5 0  9998,2 49757  53.2172 335.8234 0000971  89.1804 270.9299 15.08837581 83789,6917.888,95.438,540.425,539.081,0.0
49757.0,STARLINK-3197,PAYLOAD,2023-06-07 18:12:53,15.08840139,9.76e-05,53.2173,334.9323,73.9924,286.1176,2.0162e-05,3.3e-07,0.0,0 STARLINK-3197,1 49757U 21115AK  23158.75895810  .00000033  00000-0  20162-4 0  9995,2 49757  53.2173 334.9323 0000976  73.9924 286.1176 15.08840139 84921,6917.88,95.438,540.42,539.07,0.0
49757.0,STARLINK-3197,PAYLOAD,2023-06-08 11:42:08,15.08837661,0.0001101,53.217,331.6609,79.0232,281.0884,6.0608e-05,6.77e-06,0.0,0 STARLINK-3197,1 49757U 21115AK  23159.48759861  .00000677  00000-0  60608-4 0  9994,2 49757  53.2170 331.6609 0001101  79.0232 281.0884 15.08837661 83924,6917.888,95.438,540.514,538.991,0.0
49757.0,STARLINK-3197,PAYLOAD,2023-06-08 18:03:40,15.08843431,0.0001015,53.2169,330.4708,85.6157,274.4951,9.2672e-05,1.188e-05,0.0,0 STARLINK-3197,1 49757U 21115AK  23159.75255384  .00001188  00000-0  92672-4 0  9999,2 49757  53.2169 330.4708 0001015  85.6157 274.4951 15.08843431 83969,6917.87,95.437,540.437,539.033,0.0
49757.0,STARLINK-3197,PAYLOAD,2023-06-09 17:54:27,15.08839157,0.0001008,53.2169,326.0105,80.0042,280.1063,9.9254e-05,1.292e-05,0.0,0 STARLINK-3197,1 49757U 21115AK  23160.74615682  .00001292  00000-0  99254-4 0  9990,2 49757  53.2169 326.0105 0001008  80.0042 280.1063 15.08839157 85224,6917.883,95.438,540.445,539.051,0.0
49757.0,STARLINK-3197,PAYLOAD,2023-06-09 21:05:13,15.08844719,0.0001056,53.2169,325.4154,79.8118,280.2993,9.3151e-05,1.195e-05,0.0,0 STARLINK-3197,1 49757U 21115AK  23160.87863344  .00001195  00000-0  93151-4 0  9996,2 49757  53.2169 325.4154 0001056  79.8118 280.2993 15.08844719 84136,6917.866,95.437,540.461,539.0,0.0
49757.0,STARLINK-3197,PAYLOAD,2023-06-10 03:26:47,15.08827689,9.91e-05,53.2167,324.2238,77.8931,282.2172,0.00022498,3.293e-05,0.0,0 STARLINK-3197,1 49757U 21115AK  23161.14360414  .00003293  00000-0  22498-3 0  9993,2 49757  53.2167 324.2238 0000991  77.8931 282.2172 15.08827689 85287,6917.918,95.438,540.469,539.097,0.0
49757.0,STARLINK-3197,PAYLOAD,2023-06-10 11:23:43,15.08833965,9.77e-05,53.2166,322.7396,81.2349,278.8754,2.8636e-06,-2.42e-06,0.0,0 STARLINK-3197,1 49757U 21115AK  23161.47480393 -.00000242  00000-0  28636-5 0  9992,2 49757  53.2166 322.7396 0000977  81.2349 278.8754 15.08833965 84224,6917.899,95.438,540.44,539.088,0.0
49757.0,STARLINK-3197,PAYLOAD,2023-06-10 14:34:29,15.08835462,0.0001109,53.218,322.1423,91.2389,268.873,-5.6438e-06,-3.78e-06,0.0,0 STARLINK-3197,1 49757U 21115AK  23161.60728433 -.00000378  00000-0 -56438-5 0  9999,2 49757  53.2180 322.1423 0001109  91.2389 268.8730 15.08835462 84247,6917.894,95.438,540.526,538.992,0.0
49757.0,STARLINK-3197,PAYLOAD,2023-06-11 11:14:30,15.08836833,0.0001008,53.2172,318.2784,86.1926,273.9181,2.9795e-05,1.86e-06,0.0,0 STARLINK-3197,1 49757U 21115AK  23162.46840355  .00000186  00000-0  29795-4 0  9992,2 49757  53.2172 318.2784 0001008  86.1926 273.9181 15.08836833 85489,6917.89,95.438,540.452,539.058,0.0
49757.0,STARLINK-3197,PAYLOAD,2023-06-11 12:49:53,15.08838148,0.0001032,53.2174,317.9808,88.8995,271.2115,3.3603e-05,2.47e-06,0.0,0 STARLINK-3197,1 49757U 21115AK  23162.53464273  .00000247  00000-0  33603-4 0  9992,2 49757  53.2174 317.9808 0001032  88.8995 271.2115 15.08838148 84383,6917.886,95.438,540.465,539.037,0.0
49757.0,STARLINK-3197,PAYLOAD,2023-06-11 17:36:02,15.08842884,9.4e-05,53.2168,317.0899,92.3463,267.7637,9.2198e-05,1.18e-05,0.0,0 STARLINK-3197,1 49757U 21115AK  23162.73335798  .00001180  00000-0  92198-4 0  9994,2 49757  53.2168 317.0899 0000940  92.3463 267.7637 15.08842884 85522,6917.872,95.437,540.387,539.086,0.0
49757.0,STARLINK-3197,PAYLOAD,2023-06-12 03:08:21,15.08841457,8.95e-05,53.2168,315.3064,91.8394,268.2701,3.7352e-05,3.07e-06,0.0,0 STARLINK-3197,1 49757U 21115AK  23163.13080050  .00000307  00000-0  37352-4 0  9998,2 49757  53.2168 315.3064 0000895  91.8394 268.2701 15.08841457 84479,6917.876,95.437,540.36,539.122,0.0
49757.0,STARLINK-3197,PAYLOAD,2023-06-13 02:59:08,15.08839057,8.68e-05,53.2172,310.8463,97.8136,262.2954,9.6819e-05,1.253e-05,0.0,0 STARLINK-3197,1 49757U 21115AK  23164.12440201  .00001253  00000-0  96819-4 0  9990,2 49757  53.2172 310.8463 0000868  97.8136 262.2954 15.08839057 85734,6917.883,95.438,540.349,539.148,0.0
49757.0,STARLINK-3197,PAYLOAD,2023-06-13 09:20:41,15.08838815,9.29e-05,53.2169,309.6571,97.2508,262.859,2.8563e-05,1.67e-06,0.0,0 STARLINK-3197,1 49757U 21115AK  23164.38936475  .00000167  00000-0  28563-4 0  9995,2 49757  53.2169 309.6571 0000929  97.2508 262.8590 15.08838815 84665,6917.884,95.438,540.392,539.106,0.0
49757.0,STARLINK-3197,PAYLOAD,2023-06-14 02:49:55,15.08839825,8.87e-05,53.2163,306.3839,92.6227,267.4867,3.5952e-05,2.85e-06,0.0,0 STARLINK-3197,1 49757U 21115AK  23165.11800439  .00000285  00000-0  35952-4 0  9998,2 49757  53.2163 306.3839 0000887  92.6227 267.4867 15.08839825 84772,6917.881,95.438,540.36,539.132,0.0
49757.0,STARLINK-3197,PAYLOAD,2023-06-14 18:43:46,15.08842692,0.0001198,53.2181,303.4116,73.6758,286.4366,5.3783e-05,5.68e-06,0.0,0 STARLINK-3197,1 49757U 21115AK  23165.78040337  .00000568  00000-0  53783-4 0  9990,2 49757  53.2181 303.4116 0001198  73.6758 286.4366 15.08842692 84874,6917.872,95.437,540.566,538.908,0.0
49757.0,STARLINK-3197,PAYLOAD,2023-06-15 02:40:42,15.08839722,0.0001024,53.2172,301.9244,84.6532,275.4577,3.9577e-05,3.42e-06,0.0,0 STARLINK-3197,1 49757U 21115AK  23166.11160467  .00000342  00000-0  39577-4 0  9990,2 49757  53.2172 301.9244 0001024  84.6532 275.4577 15.08839722 86031,6917.881,95.438,540.455,539.038,0.0
49757.0,STARLINK-3197,PAYLOAD,2023-06-15 13:48:24,15.08854914,0.0001346,53.2169,299.8436,78.8632,281.2511,-0.00016806,-2.963e-05,0.0,0 STARLINK-3197,1 49757U 21115AK  23166.57528076 -.00002963  00000-0 -16806-3 0  9996,2 49757  53.2169 299.8436 0001346  78.8632 281.2511 15.08854914 84994,6917.835,95.437,540.631,538.769,0.0
49757.0,STARLINK-3197,PAYLOAD,2023-06-15 15:23:47,15.08840511,0.0001216,53.2176,299.5465,76.6938,283.4189,6.854e-05,8.03e-06,0.0,0 STARLINK-3197,1 49757U 21115AK  23166.64152511  .00000803  00000-0  68540-4 0  9993,2 49757  53.2176 299.5465 0001216  76.6938 283.4189 15.08840511 85008,6917.879,95.438,540.585,538.903,0.0
49757.0,STARLINK-3197,PAYLOAD,2023-06-16 12:03:48,15.0884793,0.0001098,53.2168,295.6787,90.2131,269.8987,-7.7215e-06,-4.11e-06,0.0,0 STARLINK-3197,1 49757U 21115AK  23167.50264000 -.00000411  00000-0 -77215-5 0  9993,2 49757  53.2168 295.6787 0001098  90.2131 269.8987 15.08847930 85138,6917.856,95.437,540.481,538.962,0.0
49757.0,STARLINK-3197,PAYLOAD,2023-06-16 15:14:33,15.08849085,8.25e-05,53.216,295.0839,96.738,263.3706,0.00011837,1.597e-05,0.0,0 STARLINK-3197,1 49757U 21115AK  23167.63511491  .00001597  00000-0  11837-3 0  9996,2 49757  53.2160 295.0839 0000825  96.7380 263.3706 15.08849085 86262,6917.853,95.437,540.288,539.147,0.0
49757.0,STARLINK-3197,PAYLOAD,2023-06-16 18:25:20,15.08848629,0.0001151,53.2159,294.489,97.1403,262.972,0.00014254,1.982e-05,0.0,0 STARLINK-3197,1 49757U 21115AK  23167.76759485  .00001982  00000-0  14254-3 0  9991,2 49757  53.2159 294.4890 0001151  97.1403 262.9720 15.08848629 85177,6917.854,95.437,540.515,538.923,0.0
49757.0,STARLINK-3197,PAYLOAD,2023-06-17 08:43:49,15.08832948,0.0002015,53.2149,291.8087,125.3038,234.8142,-4.4816e-05,-1.001e-05,0.0,0 STARLINK-3197,1 49757U 21115AK  23168.36377191 -.00001001  00000-0 -44816-4 0  9990,2 49757  53.2149 291.8087 0002015 125.3038 234.8142 15.08832948 86379,6917.902,95.438,541.161,538.373,0.0
